00197    9.47  0.15 K20CH   8.91631  245.86137   81.59114    8.79108  0.1639954  0.21743620   2.7389335  0 MPO593091  3395  72 1879-2021 0.44 M-v 3Ek Pan        0000    (197) Arete              20210107
00198    8.52  0.15 K20CH 179.42170   89.15406  268.25361    9.32070  0.2273221  0.25561394   2.4589311  0 MPO593091  2704  56 1885-2021 0.44 M-v 3Ek Pan        0000    (198) Ampella            20210110
00199    8.55  0.15 K20CH   6.31906  180.33119   88.58259   15.47856  0.1810135  0.17485769   3.1672297  0 MPO593091  2776  46 1879-2020 0.42 M-v 3Ek Pan        0000    (199) Byblis             20201001
00200    8.42  0.15 K20CH 356.96257   86.79596  324.27016    6.89977  0.1321444  0.21764229   2.7372042  0 MPO593091  3529  61 1879-2021 0.65 M-v 3Ek Pan        0000    (200) Dynamene           20210113
00201    8.39  0.15 K20CH  79.25374  180.78515  156.92154    5.75575  0.1792958  0.22480244   2.6787697  0 MPO593091  3139  63 1879-2021 0.48 M-v 3Ek Pan        0000    (201) Penelope           20210110
00202    7.51  0.15 K20CH 305.59524    0.11228  136.72386    8.85049  0.1039495  0.18322891   3.0700118  0 MPO593091  2801  71 1879-2021 0.47 M-v 3Ek Pan        0000    (202) Chryseis           20210110
00203    8.85  0.15 K20CH  33.09685   59.85382  347.72022    3.17212  0.0588823  0.21761692   2.7374169  0 MPO593091  3142  74 1879-2021 0.45 M-v 3Ek Pan        0000    (203) Pompeja            20210113
00204    8.91  0.15 K20CH 231.90836   55.33502  205.09395    8.28508  0.1739638  0.22570834   2.6715972  0 MPO593091  3501  59 1879-2021 0.44 M-v 3Ek Pan        0000    (204) Kallisto           20210112
00205    9.51  0.15 K20CH 180.21075  176.18874  211.77479   10.69646  0.0365613  0.21305050   2.7763935  0 MPO593091  3117  54 1879-2021 0.42 M-v 3Ek Pan        0000    (205) Martha             20210113
00206    8.77  0.15 K20CH 333.39470  302.84803  145.04253    3.77964  0.0388572  0.21726722   2.7403534  0 MPO593091  3398  65 1879-2021 0.46 M-v 3Ek Pan        0000    (206) Hersilia           20210113
00207   10.13  0.15 K20CH 131.63279  193.16230   29.14869    3.80234  0.0297984  0.28560566   2.2836253  0 MPO593091  3486  55 1882-2021 0.40 M-v 3Ek Pan        0000    (207) Hedda              20210113
00208    9.19  0.15 K20CH 167.48475  111.17960    4.20318    1.74510  0.0112743  0.20008823   2.8950430  0 MPO593091  3378  64 1901-2020 0.46 M-v 3Ek Pan        0000    (208) Lacrimosa          20201106
00209    8.23  0.15 K20CH 232.95509  249.57052    0.64486    7.16899  0.0558977  0.17638510   3.1489187  0 MPO593091  3113  68 1879-2021 0.47 M-v 3Ek Pan        0000    (209) Dido               20210113
00210    9.47  0.15 K20CH 144.86988   14.73126   32.56498    5.26032  0.1239038  0.21958076   2.7210710  0 MPO593091  2952  56 1885-2021 0.45 M-v 3Ek Pan        0000    (210) Isabella           20210113
00211    8.04  0.15 K20CH 197.61403  173.34877  263.63203    3.88426  0.1594348  0.18559666   3.0438455  0 MPO593091  2886  70 1880-2020 0.47 M-v 3Ek Pan        0000    (211) Isolda             20201001
00212    8.41  0.15 K20CH 310.63560  104.92515  312.92323    4.27900  0.1024548  0.17924417   3.1153441  0 MPO593091  3285  72 1880-2021 0.45 M-v 3Ek Pan        0000    (212) Medea              20210112
00213    8.97  0.15 K20CH 184.77496  162.29920  122.02817    6.80135  0.1445830  0.21566424   2.7539156  0 MPO593091  3342  60 1880-2021 0.47 M-v 3Ek Pan        0000    (213) Lilaea             20210113
00214    9.28  0.15 K20CH 179.73201  132.64491  341.94186    3.43658  0.0302005  0.23331786   2.6131884  0 MPO593091  3061  61 1880-2020 0.47 M-v 3Ek Pan        0000    (214) Aschera            20201017
00215    9.50  0.15 K20CH  72.88848  316.70931   24.90603    1.68180  0.0339383  0.21423150   2.7661804  0 MPO593091  3525  58 1905-2021 0.44 M-v 3Ek Pan        0000    (215) Oenone             20210110
00216    7.15  0.15 K20CH 197.51281  179.95999  215.34700   13.11592  0.2512107  0.21121161   2.7924851  0 MPO593091  3509  79 1880-2021 0.46 M-v 3Ek Pan        0000    (216) Kleopatra          20210110
00217    9.93  0.15 K20CH 314.07240  155.32192  162.57415   10.52181  0.3105641  0.20311360   2.8662235  0 MPO593091  3168  49 1885-2020 0.41 M-v 3Ek Pan        0000    (217) Eudora             20200818
00218    8.57  0.15 K20CH 172.66842   62.62357  170.57520   15.19853  0.1172596  0.22635478   2.6665083  0 MPO593091  3152  52 1893-2021 0.42 M-v 3Ek Pan        0000    (218) Bianca             20210112
00219    9.28  0.15 K20CH 314.79837  142.67311  200.80224   10.86265  0.2236289  0.27286347   2.3541771  0 MPO593091  3167  49 1898-2020 0.44 M-v 3Ek Pan        0000    (219) Thusnelda          20200928
00220   11.28  0.15 K20CH 207.52523   78.63810  257.87509    7.59396  0.2574754  0.27385688   2.3484804  0 MPO593091  3016  39 1931-2021 0.46 M-v 3Ek Pan        0000    (220) Stephania          20210113
00221    7.79  0.15 K20CH   9.66722  192.30041  141.73130   10.89288  0.1027386  0.18865481   3.0108617  0 MPO593091  3109  72 1885-2021 0.47 M-v 3Ek Pan        0000    (221) Eos                20210112
00222    9.63  0.15 K20CH 271.73577  181.49301   80.13206    2.14895  0.1311666  0.17691989   3.1425699  0 MPO593091  3852  60 1899-2021 0.45 M-v 3Ek Pan        0000    (222) Lucia              20210112
00223    9.91  0.15 K20CH 235.70365   64.90321   47.55960    1.92321  0.1191427  0.18119123   3.0929859  0 MPO593091  3507  56 1885-2021 0.43 M-v 3Ek Pan        0000    (223) Rosa               20210113
00224    8.69  0.15 K20CH   7.61171  284.73596  352.77394    5.84223  0.0445515  0.22893544   2.6464317  0 MPO593091  2874  58 1899-2020 0.46 M-v 3Ek Pan        0000    (224) Oceana             20201001
00225    8.87  0.15 K20CH  52.20263  103.74108  197.04736   20.85616  0.2633881  0.15781995   3.3912628  0 MPO593091  3553  52 1895-2021 0.41 M-v 3Ek Pan        0000    (225) Henrietta          20210112
00226    9.91  0.15 K20CH   7.90004  154.11840  134.94616   15.97182  0.2044500  0.22057040   2.7129257  0 MPO593091  3237  47 1882-2020 0.38 M-v 3Ek Pan        0000    (226) Weringia           20201110
00227    9.15  0.15 K20CH 351.04833  267.43504  326.20754    9.15478  0.1907080  0.17530665   3.1618198  0 MPO593091  3171  53 1908-2020 0.44 M-v 3Ek Pan        0000    (227) Philosophia        20200731
00228   12.3   0.15 K20CH 122.03843   19.06368  313.29953    2.53675  0.2418306  0.30168867   2.2017265  0 MPO530956  2598  33 1905-2020 0.40 M-v 38h MPCW       0000    (228) Agathe             20200126
00229    9.20  0.15 K20CH 328.71948  309.86127   27.92894    2.07556  0.1393102  0.15518537   3.4295373  0 MPO593091  3276  64 1885-2020 0.46 M-v 3Ek Pan        0000    (229) Adelinda           20201023
00230    7.38  0.15 K20CH 184.19041  139.97592  239.84312    9.45071  0.0619683  0.26813624   2.3817657  0 MPO593091  2643  72 1882-2021 0.56 M-v 3Ek Pan        0000    (230) Athamantis         20210113
00231    9.63  0.15 K20CH 327.58915  269.08959  350.49939    5.10217  0.1515958  0.19730958   2.9221596  0 MPO593091  2813  54 1885-2020 0.43 M-v 3Ek Pan        0000    (231) Vindobona          20200712
00232   10.45  0.15 K20CH 240.66222   51.96571  152.20494    6.06570  0.1746673  0.24165922   2.5527041  0 MPO593091  3193  47 1913-2021 0.43 M-v 3Ek Pan        0000    (232) Russia             20210113
00233    8.40  0.15 K20CH 140.96090  126.21393  221.96194    7.68936  0.0992866  0.22705964   2.6609870  0 MPO593091  3032  63 1897-2021 0.47 M-v 3Ek Pan        0000    (233) Asterope           20210112
00234    9.10  0.15 K20CH  85.16687  192.22860  144.50186   15.37571  0.2450961  0.26745424   2.3858130  0 MPO593092  4777  56 1885-2021 0.39 M-v 3Ek Pan        0007    (234) Barbara            20210112
00235    8.92  0.15 K20CH 141.93271  207.89691   66.01162    9.03113  0.0618159  0.20152627   2.8812544  0 MPO593092  3374  53 1884-2021 0.43 M-v 3Ek Pan        0000    (235) Carolina           20210113
00236    8.28  0.15 K20CH 271.84867  174.59327  185.84443    7.69542  0.1911515  0.21066438   2.7973189  0 MPO593092  2980  68 1884-2020 0.47 M-v 3Ek Pan        0000    (236) Honoria            20200928
00237    9.18  0.15 K20CH 235.59620  200.21124   84.24105    9.74681  0.0710975  0.21454501   2.7634850  0 MPO593092  3139  61 1884-2021 0.41 M-v 3Ek Pan        0000    (237) Coelestina         20210110
00238    8.08  0.15 K20CH 128.35201  210.61238  183.86248   12.41264  0.0899548  0.19888053   2.9067513  0 MPO593092  3120  63 1892-2021 0.48 M-v 3Ek Pan        0000    (238) Hypatia            20210113
00239   10.51  0.15 K20CH 182.49923  209.91748  180.62113    6.17658  0.2356222  0.19302225   2.9652715  0 MPO593092  3157  49 1884-2021 0.44 M-v 3Ek Pan        0000    (239) Adrastea           20210113
00240    9.21  0.15 K20CH  62.02506  300.98929  115.06767    2.10557  0.2079332  0.22660141   2.6645731  0 MPO593092  3277  65 1884-2021 0.51 M-v 3Ek Pan        0000    (240) Vanadis            20210112
00241    7.79  0.15 K20CH 214.27217   80.45395  270.33985    5.50510  0.1034260  0.18521259   3.0480520  0 MPO593092  2868  86 1884-2021 0.47 M-v 3Ek Pan        0000    (241) Germania           20210113
00242    9.37  0.15 K20CH 317.21450  279.22464  206.90709   11.35015  0.1217512  0.20358910   2.8617589  0 MPO593092  3449  53 1885-2021 0.45 M-v 3Ek Pan        0000    (242) Kriemhild          20210112
00243    9.94  0.15 K20CH   1.69022  113.97304  323.63090    1.13024  0.0434928  0.20360890   2.8615733  0 MPO593092  4278  60 1885-2021 0.42 M-v 3Ek Pan        0000    (243) Ida                20210113
00244   12.04  0.15 K20CH 177.73364  166.41378  208.95966    2.84538  0.1373187  0.30742888   2.1742339  0 MPO593092  3022  45 1885-2021 0.45 M-v 3Ek Pan        0000    (244) Sita               20210113
00245    7.85  0.15 K20CH  47.64853  331.62033   61.06538    5.17817  0.1968861  0.18079516   3.0975014  0 MPO593092  2866  63 1885-2021 0.48 M-v 3Ek Pan        0000    (245) Vera               20210109
